{"type": "FeatureCollection", "features": [{"type": "Feature", "properties": {"norad_id": 22490, "name": "SCD 1", "group": "resource", "lat": 0.7101363051165196, "lon": -18.073881917939843, "alt_km": 760.4695867761793, "timestamp": "2025-12-02T17:49:11.681955+00:00", "meta": {"OBJECT_NAME": "SCD 1", "OBJECT_ID": "1993-009B", "EPOCH": "2025-12-02T10:13:06.223008", "MEAN_MOTION": 14.45986792, "ECCENTRICITY": 0.0041862, "INCLINATION": 24.971, "RA_OF_ASC_NODE": 342.3541, "ARG_OF_PERICENTER": 215.3163, "MEAN_ANOMALY": 294.024, "EPHEMERIS_TYPE": 0, "CLASSIFICATION_TYPE": "U", "NORAD_CAT_ID": 22490, "ELEMENT_SET_NO": 999, "REV_AT_EPOCH": 73260, "BSTAR": 0.00012458, "MEAN_MOTION_DOT": 6.42e-06, "MEAN_MOTION_DDOT": 0}, "tle": {"line1": "1 22490U 93009B   25336.42576647  .00000642  00000+0  12458-3 0  9992", "line2": "2 22490  24.9710 342.3541 0041862 215.3163 294.0240 14.45986792732600"}}, "geometry": {"type": "Point", "coordinates": [-18.073881917939843, 0.7101363051165196]}}, {"type": "Feature", "properties": {"norad_id": 25397, "name": "TECHSAT 1B (GO-32)", "group": "resource", "lat": 53.44988540719735, "lon": -52.60803403099617, "alt_km": 803.9953497094893, "timestamp": "2025-12-02T17:49:11.681984+00:00", "meta": {"OBJECT_NAME": "TECHSAT 1B (GO-32)", "OBJECT_ID": "1998-043D", "EPOCH": "2025-12-02T09:08:09.182112", "MEAN_MOTION": 14.24372307, "ECCENTRICITY": 0.0002259, "INCLINATION": 98.9914, "RA_OF_ASC_NODE": 319.3542, "ARG_OF_PERICENTER": 74.523, "MEAN_ANOMALY": 285.6197, "EPHEMERIS_TYPE": 0, "CLASSIFICATION_TYPE": "U", "NORAD_CAT_ID": 25397, "ELEMENT_SET_NO": 999, "REV_AT_EPOCH": 42331, "BSTAR": 8.3321e-05, "MEAN_MOTION_DOT": 1.46e-06, "MEAN_MOTION_DDOT": 0}, "tle": {"line1": "1 25397U 98043D   25336.38066183  .00000146  00000+0  83321-4 0  9995", "line2": "2 25397  98.9914 319.3542 0002259  74.5230 285.6197 14.24372307423318"}}, "geometry": {"type": "Point", "coordinates": [-52.60803403099617, 53.44988540719735]}}, {"type": "Feature", "properties": {"norad_id": 25504, "name": "SCD 2", "group": "resource", "lat": 20.03338094457549, "lon": -104.94972299025865, "alt_km": 746.3116820370542, "timestamp": "2025-12-02T17:49:11.681999+00:00", "meta": {"OBJECT_NAME": "SCD 2", "OBJECT_ID": "1998-060A", "EPOCH": "2025-12-02T08:22:08.651136", "MEAN_MOTION": 14.45414, "ECCENTRICITY": 0.0016726, "INCLINATION": 24.9937, "RA_OF_ASC_NODE": 205.9699, "ARG_OF_PERICENTER": 202.5525, "MEAN_ANOMALY": 318.5622, "EPHEMERIS_TYPE": 0, "CLASSIFICATION_TYPE": "U", "NORAD_CAT_ID": 25504, "ELEMENT_SET_NO": 999, "REV_AT_EPOCH": 43181, "BSTAR": 9.8916e-05, "MEAN_MOTION_DOT": 5.36e-06, "MEAN_MOTION_DDOT": 0}, "tle": {"line1": "1 25504U 98060A   25336.34871124  .00000536  00000+0  98916-4 0  9998", "line2": "2 25504  24.9937 205.9699 0016726 202.5525 318.5622 14.45414000431812"}}, "geometry": {"type": "Point", "coordinates": [-104.94972299025865, 20.03338094457549]}}, {"type": "Feature", "properties": {"norad_id": 25757, "name": "DLR-TUBSAT", "group": "resource", "lat": -12.396624709743957, "lon": -37.13312154652915, "alt_km": 727.5782181094391, "timestamp": "2025-12-02T17:49:11.682012+00:00", "meta": {"OBJECT_NAME": "DLR-TUBSAT", "OBJECT_ID": "1999-029B", "EPOCH": "2025-12-02T11:15:49.641984", "MEAN_MOTION": 14.52351212, "ECCENTRICITY": 0.0013347, "INCLINATION": 98.6555, "RA_OF_ASC_NODE": 320.6666, "ARG_OF_PERICENTER": 225.229, "MEAN_ANOMALY": 134.7819, "EPHEMERIS_TYPE": 0, "CLASSIFICATION_TYPE": "U", "NORAD_CAT_ID": 25757, "ELEMENT_SET_NO": 999, "REV_AT_EPOCH": 40469, "BSTAR": 6.1159e-05, "MEAN_MOTION_DOT": 2.01e-06, "MEAN_MOTION_DDOT": 0}, "tle": {"line1": "1 25757U 99029B   25336.46932456  .00000201  00000+0  61159-4 0  9991", "line2": "2 25757  98.6555 320.6666 0013347 225.2290 134.7819 14.52351212404697"}}, "geometry": {"type": "Point", "coordinates": [-37.13312154652915, -12.396624709743957]}}, {"type": "Feature", "properties": {"norad_id": 25994, "name": "TERRA", "group": "resource", "lat": 74.55636813431823, "lon": -120.70733525334138, "alt_km": 680.7408642113123, "timestamp": "2025-12-02T17:49:11.682023+00:00", "meta": {"OBJECT_NAME": "TERRA", "OBJECT_ID": "1999-068A", "EPOCH": "2025-12-02T11:02:06.308736", "MEAN_MOTION": 14.60933302, "ECCENTRICITY": 0.0003376, "INCLINATION": 97.9764, "RA_OF_ASC_NODE": 28.5207, "ARG_OF_PERICENTER": 118.5544, "MEAN_ANOMALY": 298.756, "EPHEMERIS_TYPE": 0, "CLASSIFICATION_TYPE": "U", "NORAD_CAT_ID": 25994, "ELEMENT_SET_NO": 999, "REV_AT_EPOCH": 38088, "BSTAR": 0.00015897, "MEAN_MOTION_DOT": 7.34e-06, "MEAN_MOTION_DDOT": 0}, "tle": {"line1": "1 25994U 99068A   25336.45979524  .00000734  00000+0  15897-3 0  9991", "line2": "2 25994  97.9764  28.5207 0003376 118.5544 298.7560 14.60933302380889"}}, "geometry": {"type": "Point", "coordinates": [-120.70733525334138, 74.55636813431823]}}, {"type": "Feature", "properties": {"norad_id": 27004, "name": "MAROC-TUBSAT", "group": "resource", "lat": 68.2584582834151, "lon": -9.329675119012789, "alt_km": 1006.0414832912411, "timestamp": "2025-12-02T17:49:11.682035+00:00", "meta": {"OBJECT_NAME": "MAROC-TUBSAT", "OBJECT_ID": "2001-056D", "EPOCH": "2025-12-02T10:24:58.972032", "MEAN_MOTION": 13.70252105, "ECCENTRICITY": 0.0019112, "INCLINATION": 99.7911, "RA_OF_ASC_NODE": 144.6986, "ARG_OF_PERICENTER": 287.5856, "MEAN_ANOMALY": 100.9799, "EPHEMERIS_TYPE": 0, "CLASSIFICATION_TYPE": "U", "NORAD_CAT_ID": 27004, "ELEMENT_SET_NO": 999, "REV_AT_EPOCH": 19924, "BSTAR": 3.5947e-05, "MEAN_MOTION_DOT": -1.5e-07, "MEAN_MOTION_DDOT": 0}, "tle": {"line1": "1 27004U 01056D   25336.43401588 -.00000015  00000+0  35947-4 0  9995", "line2": "2 27004  99.7911 144.6986 0019112 287.5856 100.9799 13.70252105199240"}}, "geometry": {"type": "Point", "coordinates": [-9.329675119012789, 68.2584582834151]}}, {"type": "Feature", "properties": {"norad_id": 27424, "name": "AQUA", "group": "resource", "lat": -52.450710234764706, "lon": -51.45407338845396, "alt_km": 694.9087961062587, "timestamp": "2025-12-02T17:49:11.682046+00:00", "meta": {"OBJECT_NAME": "AQUA", "OBJECT_ID": "2002-022A", "EPOCH": "2025-12-02T11:59:32.149824", "MEAN_MOTION": 14.61768633, "ECCENTRICITY": 7.3e-05, "INCLINATION": 98.4022, "RA_OF_ASC_NODE": 297.2134, "ARG_OF_PERICENTER": 106.9827, "MEAN_ANOMALY": 2.7837, "EPHEMERIS_TYPE": 0, "CLASSIFICATION_TYPE": "U", "NORAD_CAT_ID": 27424, "ELEMENT_SET_NO": 999, "REV_AT_EPOCH": 25453, "BSTAR": 0.00031046, "MEAN_MOTION_DOT": 1.5e-05, "MEAN_MOTION_DDOT": 0}, "tle": {"line1": "1 27424U 02022A   25336.49967766  .00001500  00000+0  31046-3 0  9990", "line2": "2 27424  98.4022 297.2134 0000730 106.9827   2.7837 14.61768633254538"}}, "geometry": {"type": "Point", "coordinates": [-51.45407338845396, -52.450710234764706]}}, {"type": "Feature", "properties": {"norad_id": 28051, "name": "IRS-P6 (RESOURCESAT-1)", "group": "resource", "lat": 15.693014512105906, "lon": 15.284825065489585, "alt_km": 816.1746439982508, "timestamp": "2025-12-02T17:49:11.682057+00:00", "meta": {"OBJECT_NAME": "IRS-P6 (RESOURCESAT-1)", "OBJECT_ID": "2003-046A", "EPOCH": "2025-12-02T13:28:11.491104", "MEAN_MOTION": 14.36066829, "ECCENTRICITY": 0.0063604, "INCLINATION": 98.2192, "RA_OF_ASC_NODE": 17.4393, "ARG_OF_PERICENTER": 211.3502, "MEAN_ANOMALY": 307.9317, "EPHEMERIS_TYPE": 0, "CLASSIFICATION_TYPE": "U", "NORAD_CAT_ID": 28051, "ELEMENT_SET_NO": 999, "REV_AT_EPOCH": 15230, "BSTAR": 0.00011908, "MEAN_MOTION_DOT": 3.13e-06, "MEAN_MOTION_DDOT": 0}, "tle": {"line1": "1 28051U 03046A   25336.56124411  .00000313  00000+0  11908-3 0  9990", "line2": "2 28051  98.2192  17.4393 0063604 211.3502 307.9317 14.36066829152305"}}, "geometry": {"type": "Point", "coordinates": [15.284825065489585, 15.693014512105906]}}, {"type": "Feature", "properties": {"norad_id": 28220, "name": "SHIYAN-1 (SY-1)", "group": "resource", "lat": -7.8522863746011105, "lon": -143.40282390512374, "alt_km": 490.98260028003006, "timestamp": "2025-12-02T17:49:11.682068+00:00", "meta": {"OBJECT_NAME": "SHIYAN-1 (SY-1)", "OBJECT_ID": "2004-012A", "EPOCH": "2025-12-02T10:42:45.224064", "MEAN_MOTION": 15.27725867, "ECCENTRICITY": 0.0006367, "INCLINATION": 97.8958, "RA_OF_ASC_NODE": 37.3804, "ARG_OF_PERICENTER": 3.4108, "MEAN_ANOMALY": 356.7173, "EPHEMERIS_TYPE": 0, "CLASSIFICATION_TYPE": "U", "NORAD_CAT_ID": 28220, "ELEMENT_SET_NO": 999, "REV_AT_EPOCH": 18099, "BSTAR": 0.0005948, "MEAN_MOTION_DOT": 0.00016059, "MEAN_MOTION_DDOT": 0}, "tle": {"line1": "1 28220U 04012A   25336.44635676  .00016059  00000+0  59480-3 0  9990", "line2": "2 28220  97.8958  37.3804 0006367   3.4108 356.7173 15.27725867180994"}}, "geometry": {"type": "Point", "coordinates": [-143.40282390512374, -7.8522863746011105]}}, {"type": "Feature", "properties": {"norad_id": 28376, "name": "AURA", "group": "resource", "lat": 69.13057430104367, "lon": 129.48608088197778, "alt_km": 682.8061063996392, "timestamp": "2025-12-02T17:49:11.682079+00:00", "meta": {"OBJECT_NAME": "AURA", "OBJECT_ID": "2004-026A", "EPOCH": "2025-12-02T10:44:48.840864", "MEAN_MOTION": 14.60906453, "ECCENTRICITY": 0.0001076, "INCLINATION": 98.3169, "RA_OF_ASC_NODE": 286.6277, "ARG_OF_PERICENTER": 90.3249, "MEAN_ANOMALY": 269.8074, "EPHEMERIS_TYPE": 0, "CLASSIFICATION_TYPE": "U", "NORAD_CAT_ID": 28376, "ELEMENT_SET_NO": 999, "REV_AT_EPOCH": 13748, "BSTAR": 0.00032197, "MEAN_MOTION_DOT": 1.528e-05, "MEAN_MOTION_DDOT": 0}, "tle": {"line1": "1 28376U 04026A   25336.44778751  .00001528  00000+0  32197-3 0  9990", "line2": "2 28376  98.3169 286.6277 0001076  90.3249 269.8074 14.60906453137480"}}, "geometry": {"type": "Point", "coordinates": [129.48608088197778, 69.13057430104367]}}]}